0 CZ-4 DEB
1 26157U 99057AT  13282.56652204  .00020035  00000-0  80109-3 0  9088
2 26157 098.7101 286.9992 0048617 042.0670 075.7040 15.24050577741572
0 CZ-4 DEB
1 26157U 99057AT  13283.99422142  .00021493  00000-0  85796-3 0  9099
2 26157 098.7101 288.6562 0048455 037.2790 348.9636 15.24096361741794
0 CZ-4 DEB
1 26157U 99057AT  13285.45974443  .00018492  00000-0  73795-3 0  9101
2 26157 098.7100 290.3575 0048273 032.4420 109.9250 15.24150832742019
0 CZ-4 DEB
1 26157U 99057AT  13286.83477231  .00019596  00000-0  78083-3 0  9119
2 26157 098.7095 291.9539 0048071 027.8161 094.7095 15.24195348742227
0 CZ-4 DEB
1 26157U 99057AT  13288.00415873  .00030613  00000-0  12145-2 0  9124
2 26157 098.7089 293.3116 0047895 023.8730 031.3288 15.24242522742406
0 CZ-4 DEB
1 26157U 99057AT  13288.92519916  .00026159  00000-0  10378-2 0  9135
2 26157 098.7087 294.3808 0047756 020.8052 045.3562 15.24285589742548
0 CZ-4 DEB
1 26157U 99057AT  13289.97332619  .00023530  00000-0  93323-3 0  9147
2 26157 098.7085 295.5978 0047598 017.2894 036.9292 15.24327744742709
0 CZ-4 DEB
1 26157U 99057AT  13291.50096216  .00022435  00000-0  88875-3 0  9159
2 26157 098.7084 297.3712 0047302 012.0821 140.1668 15.24391433742936
0 CZ-4 DEB
1 26157U 99057AT  13292.61122933  .00021694  00000-0  85868-3 0  9164
2 26157 098.7084 298.6602 0047143 008.3142 113.1973 15.24434956743102
0 CZ-4 DEB
1 26157U 99057AT  13293.97186685  .00022620  00000-0  89381-3 0  9173
2 26157 098.7087 300.2400 0047014 003.6788 020.4877 15.24486652743318
0 CZ-4 DEB
1 26157U 99057AT  13295.02913308  .00022972  00000-0  90675-3 0  9180
2 26157 098.7087 301.4673 0046831 000.0676 063.0414 15.24526988743470
